{
  "norad_id": 61533,
  "name": "STARLINK-11323 [DTC]",
  "history": [
    {
      "epoch": "2026-03-28T10:42:45.792576Z",
      "apogee_km": 360.4608384014691,
      "perigee_km": 358.9732549850414,
      "latitude_deg": 2.827625845717559e-05,
      "longitude_deg": 157.21662713375886,
      "height_km": 360.3069397738203,
      "semi_major_axis_km": 6737.854046693255,
      "eccentricity": 0.00011039,
      "inclination_deg": 53.1577,
      "raan_deg": 143.7741,
      "arg_perigee_deg": 64.2053,
      "mean_anomaly_deg": 295.9079,
      "mean_motion_rev_day": 15.69713391
    },
    {
      "epoch": "2026-03-29T08:06:20.564064Z",
      "apogee_km": 360.4411770526658,
      "perigee_km": 359.02851484144594,
      "latitude_deg": 3.501591026252434e-05,
      "longitude_deg": -168.94962805533257,
      "height_km": 360.27378167613784,
      "semi_major_axis_km": 6737.871845947056,
      "eccentricity": 0.00010483,
      "inclination_deg": 53.1582,
      "raan_deg": 139.3813,
      "arg_perigee_deg": 57.9512,
      "mean_anomaly_deg": 302.1608,
      "mean_motion_rev_day": 15.69707171
    },
    {
      "epoch": "2026-03-30T13:08:20.652864Z",
      "apogee_km": 360.4536287309302,
      "perigee_km": 359.04473673012035,
      "latitude_deg": -2.789548085846848e-05,
      "longitude_deg": 108.39099839899714,
      "height_km": 360.7677772251449,
      "semi_major_axis_km": 6737.8861827305245,
      "eccentricity": 0.00010455,
      "inclination_deg": 53.1587,
      "raan_deg": 133.4147,
      "arg_perigee_deg": 98.5713,
      "mean_anomaly_deg": 261.5423,
      "mean_motion_rev_day": 15.69702161
    }
  ]
}